STARLINK-32646          
1 62307U 24239G   25283.04640163  .00035317  00000+0  88824-3 0  9993
2 62307  53.1557 161.2963 0000914  72.4754 287.6350 15.39639998 46493
STARLINK-32706          
1 62308U 24239H   25282.96574227  .00035052  00000+0  11896-2 0  9991
2 62308  53.1598 174.2841 0000643 106.9370 253.1702 15.30211263 46305
STARLINK-32678          
1 62309U 24239J   25282.98180781  .00042768  00000+0  10734-2 0  9994
2 62309  53.1582 161.6021 0000782  35.4432 324.6625 15.39613540 46488
STARLINK-32696          
1 62310U 24239K   25282.70131668  .00028168  00000+0  95916-3 0  9990
2 62310  53.1595 175.4807 0001318  90.4837 269.6315 15.30213958 46265
STARLINK-32700          
1 62311U 24239L   25282.67117001  .00061357  00000+0  15701-2 0  9992
2 62311  53.1580 163.2225 0008557  89.0201 271.1784 15.38828181 46424
STARLINK-32698          
1 62312U 24239M   25282.96890973  .00021232  00000+0  72678-3 0  9996
2 62312  53.1587 174.3035 0001218  90.3488 269.7652 15.30207299 46300
STARLINK-32634          
1 62313U 24239N   25282.93049500  .00055742  00000+0  13462-2 0  9994
2 62313  53.1579 161.9951 0005103 318.5088  41.5530 15.40655015 46472
STARLINK-32651          
1 62314U 24239P   25282.99940297  .00023928  00000+0  81878-3 0  9992
2 62314  53.1565 173.7820 0001537  70.4106 289.7061 15.30145396 46319
STARLINK-32627          
1 62315U 24239Q   25282.96678977  .00028943  00000+0  98519-3 0  9995
2 62315  53.1601 174.2446 0000977  80.9594 279.1517 15.30211667 46308
STARLINK-32596          
1 62316U 24239R   25283.02472245  .00033682  00000+0  11427-2 0  9992
2 62316  53.1617 173.9429 0000825 161.3234 198.7797 15.30242962 46319
STARLINK-32519          
1 62317U 24239S   25283.07913920  .00038220  00000+0  95973-3 0  9990
2 62317  53.1567 160.7881 0000680  58.7138 301.3934 15.39650965 46502
STARLINK-32527          
1 62319U 24239U   25283.03244242  .00046709  00000+0  11742-2 0  9994
2 62319  53.1566 161.2047 0005308 223.5051 136.5536 15.39513709 46499
STARLINK-32481          
1 62320U 24239V   25282.98612536  .00037288  00000+0  93693-3 0  9992
2 62320  53.1572 161.6288 0000302 107.3741 252.7297 15.39642664 46480
STARLINK-32645          
1 62321U 24239W   25281.96141981  .00078316  00000+0  19500-2 0  9992
2 62321  53.1602 166.6118 0002667 102.5405 257.5898 15.39584170 46322
STARLINK-32654          
1 62322U 24239X   25282.66860399  .00043828  00000+0  14827-2 0  9999
2 62322  53.1573 175.2722 0001147  79.0062 281.1068 15.30210117 46269
STARLINK-11444 [DTC]    
1 62409U 24249A   25283.22979659  .00362498  00000+0  26733-2 0  9995
2 62409  42.9986 354.8980 0002544 241.8436 118.2175 15.71139813 45813
STARLINK-11493 [DTC]    
1 62410U 24249B   25283.23509885  .00427224  00000+0  31170-2 0  9998
2 62410  42.9984 354.9402 0002482 213.4977 146.5734 15.71203712 45814
STARLINK-11453 [DTC]    
1 62411U 24249C   25282.50383804  .00312772  00000+0  23485-2 0  9990
2 62411  42.9989 358.9000 0001516 269.3800  90.6894 15.70859616 45703
STARLINK-11462 [DTC]    
1 62412U 24249D   25283.27214487  .00242716  00000+0  18388-2 0  9992
2 62412  42.9991 354.3435 0003294 290.0371  70.0142 15.70857000 45824
STARLINK-11441 [DTC]    
1 62413U 24249E   25283.25090736  .00243369  00000+0  18405-2 0  9995
2 62413  43.0000 354.1713 0005393 295.1901  64.8407 15.70888117 45820
STARLINK-11445 [DTC]    
1 62414U 24249F   25283.26152345  .00307906  00000+0  22970-2 0  9992
2 62414  42.9992 354.2564 0002195 243.7356 116.3287 15.71028773 45828
STARLINK-11355 [DTC]    
1 62415U 24249G   25282.61597664  .00402684  00000+0  29714-2 0  9990
2 62415  42.9992 358.0021 0006656 275.3941  84.6167 15.70992872 45728
STARLINK-11446 [DTC]    
1 62416U 24249H   25283.24028633  .00367527  00000+0  27224-2 0  9996
2 62416  42.9990 354.0846 0002373 249.3415 110.7198 15.71019617 45821
STARLINK-11428 [DTC]    
1 62417U 24249J   25283.21918014  .00249536  00000+0  18860-2 0  9990
2 62417  42.9989 354.8174 0000951 216.1876 143.8928 15.70894550 45818
STARLINK-11447 [DTC]    
1 62418U 24249K   25283.24559720  .00403700  00000+0  29722-2 0  9993
2 62418  42.9994 354.1264 0001901 264.2983  95.7667 15.71057138 45827
STARLINK-11439 [DTC]    
1 62419U 24249L   25283.25621646  .00245503  00000+0  18464-2 0  9998
2 62419  42.9994 354.2123 0005789 290.8196  69.2052 15.71010916 45829
STARLINK-11434 [DTC]    
1 62420U 24249M   25283.22448693  .00272441  00000+0  20530-2 0  9994
2 62420  42.9995 354.8509 0001304 240.2586 119.8152 15.70896150 45810
STARLINK-11461 [DTC]    
1 62421U 24249N   25283.27745336  .00360048  00000+0  26862-2 0  9999
2 62421  42.9992 354.3813 0003314 297.5367  62.5164 15.70869186 45823
STARLINK-32692          
1 62422U 24249P   25283.18460449  .00025347  00000+0  92723-3 0  9999
2 62422  43.0053  92.0075 0001869 273.4621  86.6017 15.27588074 44705
