OBJECT_NAME,OBJECT_ID,EPOCH,MEAN_MOTION,ECCENTRICITY,INCLINATION,RA_OF_ASC_NODE,ARG_OF_PERICENTER,MEAN_ANOMALY,EPHEMERIS_TYPE,CLASSIFICATION_TYPE,NORAD_CAT_ID,ELEMENT_SET_NO,REV_AT_EPOCH,BSTAR,MEAN_MOTION_DOT,MEAN_MOTION_DDOT
STARLINK-32646,2024-239G,2025-10-10T01:06:49.100832,15.39639998,.00009142,53.1557,161.2963,72.4754,287.6350,0,U,62307,999,4649,.88824099E-3,.35317E-3,0
STARLINK-32706,2024-239H,2025-10-09T23:10:40.132128,15.30211263,.0000643,53.1598,174.2841,106.9370,253.1702,0,U,62308,999,4630,.11896E-2,.35052E-3,0
STARLINK-32678,2024-239J,2025-10-09T23:33:48.194784,15.39613540,.00007824,53.1582,161.6021,35.4432,324.6625,0,U,62309,999,4648,.1073416E-2,.42768E-3,0
STARLINK-32696,2024-239K,2025-10-09T16:49:53.761152,15.30213958,.00013182,53.1595,175.4807,90.4837,269.6315,0,U,62310,999,4626,.95915695E-3,.28168E-3,0
STARLINK-32700,2024-239L,2025-10-09T16:06:29.088864,15.38828181,.00085579,53.1580,163.2225,89.0201,271.1784,0,U,62311,999,4642,.15701205E-2,.61357E-3,0
STARLINK-32698,2024-239M,2025-10-09T23:15:13.800672,15.30207299,.0001218,53.1587,174.3035,90.3488,269.7652,0,U,62312,999,4630,.72678E-3,.21232E-3,0
STARLINK-32634,2024-239N,2025-10-09T22:19:54.768000,15.40655015,.0005103,53.1579,161.9951,318.5088,41.5530,0,U,62313,999,4647,.13462E-2,.55742E-3,0
STARLINK-32651,2024-239P,2025-10-09T23:59:08.416608,15.30145396,.00015379,53.1565,173.7820,70.4106,289.7061,0,U,62314,999,4631,.81878069E-3,.23928E-3,0
STARLINK-32627,2024-239Q,2025-10-09T23:12:10.636128,15.30211667,.0000977,53.1601,174.2446,80.9594,279.1517,0,U,62315,999,4630,.98519E-3,.28943E-3,0
STARLINK-32596,2024-239R,2025-10-10T00:35:36.019680,15.30242962,.00008256,53.1617,173.9429,161.3234,198.7797,0,U,62316,999,4631,.11426629E-2,.33682E-3,0
STARLINK-32519,2024-239S,2025-10-10T01:53:57.626880,15.39650965,.000068,53.1567,160.7881,58.7138,301.3934,0,U,62317,999,4650,.95972613E-3,.3822E-3,0
STARLINK-32527,2024-239U,2025-10-10T00:46:43.025088,15.39513709,.00053087,53.1566,161.2047,223.5051,136.5536,0,U,62319,999,4649,.11742113E-2,.46709E-3,0
STARLINK-32481,2024-239V,2025-10-09T23:40:01.231104,15.39642664,.00003021,53.1572,161.6288,107.3741,252.7297,0,U,62320,999,4648,.93692697E-3,.37288E-3,0
STARLINK-32645,2024-239W,2025-10-08T23:04:26.671584,15.39584170,.0002667,53.1602,166.6118,102.5405,257.5898,0,U,62321,999,4632,.195E-2,.78316E-3,0
STARLINK-32654,2024-239X,2025-10-09T16:02:47.384736,15.30210117,.00011474,53.1573,175.2722,79.0062,281.1068,0,U,62322,999,4626,.14827205E-2,.43828E-3,0
STARLINK-11444 [DTC],2024-249A,2025-10-10T05:30:54.425376,15.71139813,.00025447,42.9986,354.8980,241.8436,118.2175,0,U,62409,999,4581,.26732915E-2,.362498E-2,0
STARLINK-11493 [DTC],2024-249B,2025-10-10T05:38:32.540640,15.71203712,.00024823,42.9984,354.9402,213.4977,146.5734,0,U,62410,999,4581,.31169562E-2,.427224E-2,0
STARLINK-11453 [DTC],2024-249C,2025-10-09T12:05:31.606656,15.70859616,.0001516,42.9989,358.9000,269.3800,90.6894,0,U,62411,999,4570,.23485E-2,.312772E-2,0
STARLINK-11462 [DTC],2024-249D,2025-10-10T06:31:53.316768,15.70857000,.00032941,42.9991,354.3435,290.0371,70.0142,0,U,62412,999,4582,.18388221E-2,.242716E-2,0
STARLINK-11441 [DTC],2024-249E,2025-10-10T06:01:18.395904,15.70888117,.00053937,43.0000,354.1713,295.1901,64.8407,0,U,62413,999,4582,.18405327E-2,.243369E-2,0
STARLINK-11445 [DTC],2024-249F,2025-10-10T06:16:35.626080,15.71028773,.00021955,42.9992,354.2564,243.7356,116.3287,0,U,62414,999,4582,.22970139E-2,.307906E-2,0
STARLINK-11355 [DTC],2024-249G,2025-10-09T14:47:00.381696,15.70992872,.0006656,42.9992,358.0021,275.3941,84.6167,0,U,62415,999,4572,.29714E-2,.402684E-2,0
STARLINK-11446 [DTC],2024-249H,2025-10-10T05:46:00.738912,15.71019617,.00023739,42.9990,354.0846,249.3415,110.7198,0,U,62416,999,4582,.27223871E-2,.367527E-2,0
STARLINK-11428 [DTC],2024-249J,2025-10-10T05:15:37.164096,15.70894550,.0000951,42.9989,354.8174,216.1876,143.8928,0,U,62417,999,4581,.18860434E-2,.249536E-2,0
STARLINK-11447 [DTC],2024-249K,2025-10-10T05:53:39.598080,15.71057138,.00019013,42.9994,354.1264,264.2983,95.7667,0,U,62418,999,4582,.29721699E-2,.4037E-2,0
STARLINK-11439 [DTC],2024-249L,2025-10-10T06:08:57.102144,15.71010916,.00057894,42.9994,354.2123,290.8196,69.2052,0,U,62419,999,4582,.18464481E-2,.245503E-2,0
STARLINK-11434 [DTC],2024-249M,2025-10-10T05:23:15.670752,15.70896150,.00013044,42.9995,354.8509,240.2586,119.8152,0,U,62420,999,4581,.20530064E-2,.272441E-2,0
STARLINK-11461 [DTC],2024-249N,2025-10-10T06:39:31.970304,15.70869186,.00033147,42.9992,354.3813,297.5367,62.5164,0,U,62421,999,4582,.26862458E-2,.360048E-2,0
STARLINK-32692,2024-249P,2025-10-10T04:25:49.827936,15.27588074,.00018693,43.0053,92.0075,273.4621,86.6017,0,U,62422,999,4470,.92722654E-3,.25347E-3,0
